[{"OBJECT_NAME":"METOP-B","OBJECT_ID":"2012-049A","EPOCH":"2026-03-04T19:10:53.400288","MEAN_MOTION":14.21442831,"ECCENTRICITY":0.0001211,"INCLINATION":98.6652,"RA_OF_ASC_NODE":117.3153,"ARG_OF_PERICENTER":292.8179,"MEAN_ANOMALY":67.287,"EPHEMERIS_TYPE":0,"CLASSIFICATION_TYPE":"U","NORAD_CAT_ID":38771,"ELEMENT_SET_NO":999,"REV_AT_EPOCH":69843,"BSTAR":9.4396e-5,"MEAN_MOTION_DOT":1.63e-6,"MEAN_MOTION_DDOT":0},{"OBJECT_NAME":"SARAL","OBJECT_ID":"2013-009A","EPOCH":"2026-03-04T18:47:06.048096","MEAN_MOTION":14.32826557,"ECCENTRICITY":0.0001197,"INCLINATION":98.5552,"RA_OF_ASC_NODE":251.6602,"ARG_OF_PERICENTER":196.7057,"MEAN_ANOMALY":163.4087,"EPHEMERIS_TYPE":0,"CLASSIFICATION_TYPE":"U","NORAD_CAT_ID":39086,"ELEMENT_SET_NO":999,"REV_AT_EPOCH":68065,"BSTAR":8.0967e-5,"MEAN_MOTION_DOT":1.77e-6,"MEAN_MOTION_DDOT":0},{"OBJECT_NAME":"METOP-C","OBJECT_ID":"2018-087A","EPOCH":"2026-03-04T18:04:53.923296","MEAN_MOTION":14.21495205,"ECCENTRICITY":0.0002186,"INCLINATION":98.6775,"RA_OF_ASC_NODE":125.21,"ARG_OF_PERICENTER":106.7955,"MEAN_ANOMALY":253.3463,"EPHEMERIS_TYPE":0,"CLASSIFICATION_TYPE":"U","NORAD_CAT_ID":43689,"ELEMENT_SET_NO":999,"REV_AT_EPOCH":37999,"BSTAR":0.00010321,"MEAN_MOTION_DOT":1.82e-6,"MEAN_MOTION_DDOT":0},{"OBJECT_NAME":"OTB-3-GAZELLE","OBJECT_ID":"2022-127A","EPOCH":"2026-03-04T11:16:08.901408","MEAN_MOTION":14.42632987,"ECCENTRICITY":0.0013892,"INCLINATION":98.3903,"RA_OF_ASC_NODE":56.7954,"ARG_OF_PERICENTER":140.4123,"MEAN_ANOMALY":219.8084,"EPHEMERIS_TYPE":0,"CLASSIFICATION_TYPE":"U","NORAD_CAT_ID":54023,"ELEMENT_SET_NO":999,"REV_AT_EPOCH":17926,"BSTAR":4.8938791e-5,"MEAN_MOTION_DOT":1.2e-6,"MEAN_MOTION_DDOT":0},{"OBJECT_NAME":"EOS-6 (OCEANSAT-3)","OBJECT_ID":"2022-158A","EPOCH":"2026-03-04T21:15:47.952288","MEAN_MOTION":14.47000704,"ECCENTRICITY":1.9e-5,"INCLINATION":98.349,"RA_OF_ASC_NODE":163.5005,"ARG_OF_PERICENTER":37.0558,"MEAN_ANOMALY":323.0648,"EPHEMERIS_TYPE":0,"CLASSIFICATION_TYPE":"U","NORAD_CAT_ID":54361,"ELEMENT_SET_NO":999,"REV_AT_EPOCH":17275,"BSTAR":0.00016235,"MEAN_MOTION_DOT":5.47e-6,"MEAN_MOTION_DDOT":0},{"OBJECT_NAME":"KINEIS-1B","OBJECT_ID":"2024-114A","EPOCH":"2026-03-04T20:04:34.516704","MEAN_MOTION":14.80402344,"ECCENTRICITY":0.0003852,"INCLINATION":97.9927,"RA_OF_ASC_NODE":88.4898,"ARG_OF_PERICENTER":83.0187,"MEAN_ANOMALY":277.1462,"EPHEMERIS_TYPE":0,"CLASSIFICATION_TYPE":"U","NORAD_CAT_ID":60079,"ELEMENT_SET_NO":999,"REV_AT_EPOCH":9196,"BSTAR":0.00023416,"MEAN_MOTION_DOT":1.736e-5,"MEAN_MOTION_DDOT":0},{"OBJECT_NAME":"KINEIS-1C","OBJECT_ID":"2024-114C","EPOCH":"2026-03-04T20:53:06.370368","MEAN_MOTION":14.80393885,"ECCENTRICITY":0.0002053,"INCLINATION":97.9948,"RA_OF_ASC_NODE":88.3477,"ARG_OF_PERICENTER":123.5711,"MEAN_ANOMALY":236.5697,"EPHEMERIS_TYPE":0,"CLASSIFICATION_TYPE":"U","NORAD_CAT_ID":60081,"ELEMENT_SET_NO":999,"REV_AT_EPOCH":9194,"BSTAR":0.00021695,"MEAN_MOTION_DOT":1.604e-5,"MEAN_MOTION_DDOT":0},{"OBJECT_NAME":"KINEIS-1D","OBJECT_ID":"2024-114D","EPOCH":"2026-03-04T20:39:46.054944","MEAN_MOTION":14.76103589,"ECCENTRICITY":0.0002248,"INCLINATION":97.9972,"RA_OF_ASC_NODE":85.1049,"ARG_OF_PERICENTER":131.6469,"MEAN_ANOMALY":228.4934,"EPHEMERIS_TYPE":0,"CLASSIFICATION_TYPE":"U","NORAD_CAT_ID":60082,"ELEMENT_SET_NO":999,"REV_AT_EPOCH":9173,"BSTAR":0.00017351,"MEAN_MOTION_DOT":1.147e-5,"MEAN_MOTION_DDOT":0},{"OBJECT_NAME":"KINEIS-1E","OBJECT_ID":"2024-114E","EPOCH":"2026-03-04T21:17:31.479360","MEAN_MOTION":14.80412267,"ECCENTRICITY":0.0002485,"INCLINATION":97.9933,"RA_OF_ASC_NODE":88.4462,"ARG_OF_PERICENTER":93.0469,"MEAN_ANOMALY":267.1028,"EPHEMERIS_TYPE":0,"CLASSIFICATION_TYPE":"U","NORAD_CAT_ID":60083,"ELEMENT_SET_NO":999,"REV_AT_EPOCH":9195,"BSTAR":0.00022025,"MEAN_MOTION_DOT":1.63e-5,"MEAN_MOTION_DDOT":0},{"OBJECT_NAME":"KINEIS-1A","OBJECT_ID":"2024-114F","EPOCH":"2026-03-04T20:28:54.426144","MEAN_MOTION":14.80426821,"ECCENTRICITY":0.0004782,"INCLINATION":97.994,"RA_OF_ASC_NODE":88.5349,"ARG_OF_PERICENTER":103.2526,"MEAN_ANOMALY":256.9219,"EPHEMERIS_TYPE":0,"CLASSIFICATION_TYPE":"U","NORAD_CAT_ID":60084,"ELEMENT_SET_NO":999,"REV_AT_EPOCH":9195,"BSTAR":0.00017935,"MEAN_MOTION_DOT":1.318e-5,"MEAN_MOTION_DDOT":0},{"OBJECT_NAME":"KINEIS-3C","OBJECT_ID":"2024-172A","EPOCH":"2026-03-04T04:59:34.055520","MEAN_MOTION":14.72284255,"ECCENTRICITY":0.00035063,"INCLINATION":98.0303,"RA_OF_ASC_NODE":154.2759,"ARG_OF_PERICENTER":111.4414,"MEAN_ANOMALY":248.7168,"EPHEMERIS_TYPE":0,"CLASSIFICATION_TYPE":"U","NORAD_CAT_ID":61220,"ELEMENT_SET_NO":999,"REV_AT_EPOCH":7762,"BSTAR":0.00055000479,"MEAN_MOTION_DOT":3.426e-5,"MEAN_MOTION_DDOT":0},{"OBJECT_NAME":"KINEIS-3D","OBJECT_ID":"2024-172B","EPOCH":"2026-03-04T16:15:04.198752","MEAN_MOTION":14.72290811,"ECCENTRICITY":0.0002554,"INCLINATION":98.0303,"RA_OF_ASC_NODE":154.7506,"ARG_OF_PERICENTER":115.2448,"MEAN_ANOMALY":244.9024,"EPHEMERIS_TYPE":0,"CLASSIFICATION_TYPE":"U","NORAD_CAT_ID":61221,"ELEMENT_SET_NO":999,"REV_AT_EPOCH":7797,"BSTAR":0.00053752,"MEAN_MOTION_DOT":3.348e-5,"MEAN_MOTION_DDOT":0},{"OBJECT_NAME":"KINEIS-3E","OBJECT_ID":"2024-172C","EPOCH":"2026-03-04T17:28:21.092160","MEAN_MOTION":14.72279581,"ECCENTRICITY":0.0001619,"INCLINATION":98.0297,"RA_OF_ASC_NODE":154.7962,"ARG_OF_PERICENTER":109.6661,"MEAN_ANOMALY":250.4721,"EPHEMERIS_TYPE":0,"CLASSIFICATION_TYPE":"U","NORAD_CAT_ID":61222,"ELEMENT_SET_NO":999,"REV_AT_EPOCH":7798,"BSTAR":0.00051979,"MEAN_MOTION_DOT":3.235e-5,"MEAN_MOTION_DDOT":0},{"OBJECT_NAME":"KINEIS-3A","OBJECT_ID":"2024-172D","EPOCH":"2026-03-04T17:03:53.924256","MEAN_MOTION":14.72307381,"ECCENTRICITY":0.0003124,"INCLINATION":98.0291,"RA_OF_ASC_NODE":154.8682,"ARG_OF_PERICENTER":80.5441,"MEAN_ANOMALY":279.612,"EPHEMERIS_TYPE":0,"CLASSIFICATION_TYPE":"U","NORAD_CAT_ID":61223,"ELEMENT_SET_NO":999,"REV_AT_EPOCH":7740,"BSTAR":0.00053035,"MEAN_MOTION_DOT":3.304e-5,"MEAN_MOTION_DDOT":0},{"OBJECT_NAME":"KINEIS-3B","OBJECT_ID":"2024-172E","EPOCH":"2026-03-04T15:01:30.304416","MEAN_MOTION":14.72260673,"ECCENTRICITY":0.0003616,"INCLINATION":98.0291,"RA_OF_ASC_NODE":154.8178,"ARG_OF_PERICENTER":73.11,"MEAN_ANOMALY":287.0503,"EPHEMERIS_TYPE":0,"CLASSIFICATION_TYPE":"U","NORAD_CAT_ID":61224,"ELEMENT_SET_NO":999,"REV_AT_EPOCH":7796,"BSTAR":0.00053082,"MEAN_MOTION_DOT":3.303e-5,"MEAN_MOTION_DDOT":0},{"OBJECT_NAME":"KINEIS-5C","OBJECT_ID":"2024-219A","EPOCH":"2026-03-04T19:21:41.101344","MEAN_MOTION":14.72351193,"ECCENTRICITY":0.0001723,"INCLINATION":97.9724,"RA_OF_ASC_NODE":225.3573,"ARG_OF_PERICENTER":97.7146,"MEAN_ANOMALY":262.4257,"EPHEMERIS_TYPE":0,"CLASSIFICATION_TYPE":"U","NORAD_CAT_ID":62081,"ELEMENT_SET_NO":999,"REV_AT_EPOCH":6839,"BSTAR":0.00023485,"MEAN_MOTION_DOT":1.437e-5,"MEAN_MOTION_DDOT":0},{"OBJECT_NAME":"KINEIS-5D","OBJECT_ID":"2024-219B","EPOCH":"2026-03-04T20:10:34.715712","MEAN_MOTION":14.72327609,"ECCENTRICITY":0.0001147,"INCLINATION":97.9647,"RA_OF_ASC_NODE":225.374,"ARG_OF_PERICENTER":77.1134,"MEAN_ANOMALY":283.0201,"EPHEMERIS_TYPE":0,"CLASSIFICATION_TYPE":"U","NORAD_CAT_ID":62082,"ELEMENT_SET_NO":999,"REV_AT_EPOCH":6840,"BSTAR":0.00026844,"MEAN_MOTION_DOT":1.649e-5,"MEAN_MOTION_DDOT":0}]
