METOP-B                 
1 38771U 12049A   26063.79922917  .00000163  00000+0  94396-4 0  9999
2 38771  98.6652 117.3153 0001211 292.8179  67.2870 14.21442831698438
SARAL                   
1 39086U 13009A   26063.78270889  .00000177  00000+0  80967-4 0  9993
2 39086  98.5552 251.6602 0001197 196.7057 163.4087 14.32826557680654
METOP-C                 
1 43689U 18087A   26063.75340189  .00000182  00000+0  10321-3 0  9998
2 43689  98.6775 125.2100 0002186 106.7955 253.3463 14.21495205379991
OTB-3-GAZELLE           
1 54023U 22127A   26063.46954747  .00000120  00000+0  48939-4 0  9990
2 54023  98.3903  56.7954 0013892 140.4123 219.8084 14.42632987179265
EOS-6 (OCEANSAT-3)      
1 54361U 22158A   26063.88597167  .00000547  00000+0  16235-3 0  9990
2 54361  98.3490 163.5005 0000190  37.0558 323.0648 14.47000704172757
KINEIS-1B               
1 60079U 24114A   26063.83651061  .00001736  00000+0  23416-3 0  9996
2 60079  97.9927  88.4898 0003852  83.0187 277.1462 14.80402344 91961
KINEIS-1C               
1 60081U 24114C   26063.87021262  .00001604  00000+0  21695-3 0  9998
2 60081  97.9948  88.3477 0002053 123.5711 236.5697 14.80393885 91940
KINEIS-1D               
1 60082U 24114D   26063.86094971  .00001147  00000+0  17351-3 0  9991
2 60082  97.9972  85.1049 0002248 131.6469 228.4934 14.76103589 91730
KINEIS-1E               
1 60083U 24114E   26063.88716990  .00001630  00000+0  22025-3 0  9997
2 60083  97.9933  88.4462 0002485  93.0469 267.1028 14.80412267 91956
KINEIS-1A               
1 60084U 24114F   26063.85340771  .00001318  00000+0  17935-3 0  9992
2 60084  97.9940  88.5349 0004782 103.2526 256.9219 14.80426821 91959
KINEIS-3C               
1 61220U 24172A   26063.20803305  .00003426  00000+0  55000-3 0  9992
2 61220  98.0303 154.2759 0003506 111.4414 248.7168 14.72284255 77627
KINEIS-3D               
1 61221U 24172B   26063.67713193  .00003348  00000+0  53752-3 0  9994
2 61221  98.0303 154.7506 0002554 115.2448 244.9024 14.72290811 77976
KINEIS-3E               
1 61222U 24172C   26063.72802190  .00003235  00000+0  51979-3 0  9991
2 61222  98.0297 154.7962 0001619 109.6661 250.4721 14.72279581 77988
KINEIS-3A               
1 61223U 24172D   26063.71104079  .00003304  00000+0  53035-3 0  9994
2 61223  98.0291 154.8682 0003124  80.5441 279.6120 14.72307381 77402
KINEIS-3B               
1 61224U 24172E   26063.62604519  .00003303  00000+0  53082-3 0  9990
2 61224  98.0291 154.8178 0003616  73.1100 287.0503 14.72260673 77960
KINEIS-5C               
1 62081U 24219A   26063.80672571  .00001437  00000+0  23485-3 0  9997
2 62081  97.9724 225.3573 0001723  97.7146 262.4257 14.72351193 68391
KINEIS-5D               
1 62082U 24219B   26063.84067958  .00001649  00000+0  26844-3 0  9996
2 62082  97.9647 225.3740 0001147  77.1134 283.0201 14.72327609 68406
